start=new Date('2022-06-15T00:00:00.000Z').valueOf();
sats=[{"EPHEMERIS_TYPE":"0","MEAN_MOTION_DOT":"-0.00720225","REV_AT_EPOCH":"556","FILE":"3496185","SITE":"AFWTR","TLE_LINE1":"1 52539U 22051G   22165.91667824 -.00720225  00000-0 -13271-1 0  9998","ARG_OF_PERICENTER":"56.7270","GP_ID":"206147559","MEAN_MOTION_DDOT":"0.0000000000000","RCS_SIZE":"LARGE","PERIAPSIS":"413.592","ECCENTRICITY":"0.00012580","LAUNCH_DATE":"2022-05-13","CENTER_NAME":"EARTH","CLASSIFICATION_TYPE":"U","BSTAR":"-0.01327100000000","DECAY_DATE":null,"OBJECT_ID":"2022-051G","PERIOD":"92.856","REF_FRAME":"TEME","SEMIMAJOR_AXIS":"6792.582","MEAN_ELEMENT_THEORY":"SGP4","ELEMENT_SET_NO":"999","MEAN_ANOMALY":"350.7097","MEAN_MOTION":"15.50780923","TLE_LINE2":"2 52539  53.2175 135.9166 0001258  56.7270 350.7097 15.50780923  5560","TIME_SYSTEM":"UTC","NORAD_CAT_ID":"52539","EPOCH":"2022-06-14T22:00:00.999936","APOAPSIS":"415.301","RA_OF_ASC_NODE":"135.9166","OBJECT_NAME":"STARLINK-3757","COUNTRY_CODE":"US","OBJECT_TYPE":"PAYLOAD","INCLINATION":"53.2175"},{"DECAY_DATE":null,"OBJECT_ID":"2022-051H","PERIOD":"92.856","REF_FRAME":"TEME","SEMIMAJOR_AXIS":"6792.539","MEAN_ELEMENT_THEORY":"SGP4","ELEMENT_SET_NO":"999","MEAN_ANOMALY":"349.0075","MEAN_MOTION":"15.50795481","TLE_LINE2":"2 52540  53.2175 135.9651 0001198  62.1502 349.0075 15.50795481  5565","TIME_SYSTEM":"UTC","NORAD_CAT_ID":"52540","EPOCH":"2022-06-14T22:00:00.999936","APOAPSIS":"415.218","RA_OF_ASC_NODE":"135.9651","OBJECT_NAME":"STARLINK-3940","COUNTRY_CODE":"US","OBJECT_TYPE":"PAYLOAD","INCLINATION":"53.2175","EPHEMERIS_TYPE":"0","MEAN_MOTION_DOT":"-0.00719960","REV_AT_EPOCH":"556","FILE":"3496185","SITE":"AFWTR","GP_ID":"206147561","TLE_LINE1":"1 52540U 22051H   22165.91667824 -.00719960  00000-0 -13259-1 0  9990","ARG_OF_PERICENTER":"62.1502","MEAN_MOTION_DDOT":"0.0000000000000","RCS_SIZE":"LARGE","PERIAPSIS":"413.591","ECCENTRICITY":"0.00011980","LAUNCH_DATE":"2022-05-13","CENTER_NAME":"EARTH","CLASSIFICATION_TYPE":"U","BSTAR":"-0.01325900000000"},{"EPOCH":"2022-06-14T22:00:00.999936","OBJECT_NAME":"STARLINK-3845","RA_OF_ASC_NODE":"137.6914","APOAPSIS":"465.185","OBJECT_TYPE":"PAYLOAD","COUNTRY_CODE":"US","INCLINATION":"53.2174","OBJECT_ID":"2022-051J","DECAY_DATE":null,"SEMIMAJOR_AXIS":"6842.220","REF_FRAME":"TEME","PERIOD":"93.876","ELEMENT_SET_NO":"999","MEAN_ELEMENT_THEORY":"SGP4","NORAD_CAT_ID":"52541","TLE_LINE2":"2 52541  53.2174 137.6914 0001608  50.4232 114.2984 15.33935823  5537","TIME_SYSTEM":"UTC","MEAN_MOTION":"15.33935823","MEAN_ANOMALY":"114.2984","PERIAPSIS":"462.985","RCS_SIZE":"LARGE","ECCENTRICITY":"0.00016080","CLASSIFICATION_TYPE":"U","LAUNCH_DATE":"2022-05-13","CENTER_NAME":"EARTH","BSTAR":"-0.02730000000000","MEAN_MOTION_DOT":"-0.00839611","REV_AT_EPOCH":"553","EPHEMERIS_TYPE":"0","FILE":"3496185","SITE":"AFWTR","MEAN_MOTION_DDOT":"0.0000000000000","ARG_OF_PERICENTER":"50.4232","TLE_LINE1":"1 52541U 22051J   22165.91667824 -.00839611  00000-0 -27300-1 0  9999","GP_ID":"206147567"},{"FILE":"3496180","MEAN_MOTION_DOT":"-0.00719868","EPHEMERIS_TYPE":"0","REV_AT_EPOCH":"556","MEAN_MOTION_DDOT":"0.0000000000000","GP_ID":"206147576","TLE_LINE1":"1 52542U 22051K   22165.91667824 -.00719868  00000-0 -13255-1 0  9995","ARG_OF_PERICENTER":"61.9876","SITE":"AFWTR","ECCENTRICITY":"0.00011970","PERIAPSIS":"413.578","RCS_SIZE":"LARGE","BSTAR":"-0.01325500000000","CLASSIFICATION_TYPE":"U","LAUNCH_DATE":"2022-05-13","CENTER_NAME":"EARTH","SEMIMAJOR_AXIS":"6792.526","REF_FRAME":"TEME","PERIOD":"92.855","OBJECT_ID":"2022-051K","DECAY_DATE":null,"NORAD_CAT_ID":"52542","TIME_SYSTEM":"UTC","TLE_LINE2":"2 52542  53.2175 135.9774 0001197  61.9876 350.0032 15.50800073  5562","MEAN_ANOMALY":"350.0032","MEAN_MOTION":"15.50800073","ELEMENT_SET_NO":"999","MEAN_ELEMENT_THEORY":"SGP4","OBJECT_NAME":"STARLINK-3937","RA_OF_ASC_NODE":"135.9774","APOAPSIS":"415.204","EPOCH":"2022-06-14T22:00:00.999936","INCLINATION":"53.2175","OBJECT_TYPE":"PAYLOAD","COUNTRY_CODE":"US"},{"PERIOD":"92.856","REF_FRAME":"TEME","SEMIMAJOR_AXIS":"6792.566","DECAY_DATE":null,"OBJECT_ID":"2022-051L","MEAN_ANOMALY":"356.0145","MEAN_MOTION":"15.50786189","TLE_LINE2":"2 52543  53.2175 135.9405 0001281  53.4770 356.0145 15.50786189  5569","TIME_SYSTEM":"UTC","NORAD_CAT_ID":"52543","MEAN_ELEMENT_THEORY":"SGP4","ELEMENT_SET_NO":"999","APOAPSIS":"415.302","RA_OF_ASC_NODE":"135.9405","OBJECT_NAME":"STARLINK-3926","EPOCH":"2022-06-14T22:00:00.999936","INCLINATION":"53.2175","COUNTRY_CODE":"US","OBJECT_TYPE":"PAYLOAD","FILE":"3496180","MEAN_MOTION_DOT":"-0.00720002","REV_AT_EPOCH":"556","EPHEMERIS_TYPE":"0","GP_ID":"206147490","TLE_LINE1":"1 52543U 22051L   22165.91667824 -.00720002  00000-0 -13264-1 0  9998","ARG_OF_PERICENTER":"53.4770","MEAN_MOTION_DDOT":"0.0000000000000","SITE":"AFWTR","ECCENTRICITY":"0.00012810","RCS_SIZE":"LARGE","PERIAPSIS":"413.561","BSTAR":"-0.01326400000000","LAUNCH_DATE":"2022-05-13","CENTER_NAME":"EARTH","CLASSIFICATION_TYPE":"U"},{"CENTER_NAME":"EARTH","LAUNCH_DATE":"2022-05-13","CLASSIFICATION_TYPE":"U","BSTAR":"-0.02692000000000","RCS_SIZE":"LARGE","PERIAPSIS":"461.580","ECCENTRICITY":"0.00017290","SITE":"AFWTR","ARG_OF_PERICENTER":"45.0927","TLE_LINE1":"1 52544U 22051M   22165.91667824 -.00839777  00000-0 -26920-1 0  9992","GP_ID":"206147582","MEAN_MOTION_DDOT":"0.0000000000000","MEAN_MOTION_DOT":"-0.00839777","REV_AT_EPOCH":"553","EPHEMERIS_TYPE":"0","FILE":"3496180","COUNTRY_CODE":"US","OBJECT_TYPE":"PAYLOAD","INCLINATION":"53.2174","EPOCH":"2022-06-14T22:00:00.999936","APOAPSIS":"463.945","RA_OF_ASC_NODE":"137.7076","OBJECT_NAME":"STARLINK-3944","MEAN_ELEMENT_THEORY":"SGP4","ELEMENT_SET_NO":"999","MEAN_ANOMALY":"136.9350","MEAN_MOTION":"15.34380684","TIME_SYSTEM":"UTC","TLE_LINE2":"2 52544  53.2174 137.7076 0001729  45.0927 136.9350 15.34380684  5533","NORAD_CAT_ID":"52544","DECAY_DATE":null,"OBJECT_ID":"2022-051M","PERIOD":"93.849","REF_FRAME":"TEME","SEMIMAJOR_AXIS":"6840.898"},{"ECCENTRICITY":"0.00012070","RCS_SIZE":"LARGE","PERIAPSIS":"413.598","BSTAR":"-0.01326300000000","LAUNCH_DATE":"2022-05-13","CENTER_NAME":"EARTH","CLASSIFICATION_TYPE":"U","FILE":"3496180","EPHEMERIS_TYPE":"0","MEAN_MOTION_DOT":"-0.00720053","REV_AT_EPOCH":"556","TLE_LINE1":"1 52545U 22051N   22165.91667824 -.00720053  00000-0 -13263-1 0  9995","GP_ID":"206147481","ARG_OF_PERICENTER":"61.4276","MEAN_MOTION_DDOT":"0.0000000000000","SITE":"AFWTR","APOAPSIS":"415.238","RA_OF_ASC_NODE":"135.9528","OBJECT_NAME":"STARLINK-3939","EPOCH":"2022-06-14T22:00:00.999936","INCLINATION":"53.2175","COUNTRY_CODE":"US","OBJECT_TYPE":"PAYLOAD","PERIOD":"92.856","REF_FRAME":"TEME","SEMIMAJOR_AXIS":"6792.553","DECAY_DATE":null,"OBJECT_ID":"2022-051N","MEAN_ANOMALY":"348.8970","MEAN_MOTION":"15.50790865","TLE_LINE2":"2 52545  53.2175 135.9528 0001207  61.4276 348.8970 15.50790865  5566","TIME_SYSTEM":"UTC","NORAD_CAT_ID":"52545","MEAN_ELEMENT_THEORY":"SGP4","ELEMENT_SET_NO":"999"},{"ELEMENT_SET_NO":"999","MEAN_ELEMENT_THEORY":"SGP4","TIME_SYSTEM":"UTC","TLE_LINE2":"2 52546  53.2175 135.9968 0001331  51.2588   3.1753 15.50801519  5565","NORAD_CAT_ID":"52546","MEAN_ANOMALY":"3.1753","MEAN_MOTION":"15.50801519","DECAY_DATE":null,"OBJECT_ID":"2022-051P","REF_FRAME":"TEME","SEMIMAJOR_AXIS":"6792.522","PERIOD":"92.855","COUNTRY_CODE":"US","OBJECT_TYPE":"PAYLOAD","INCLINATION":"53.2175","EPOCH":"2022-06-14T22:00:00.999936","OBJECT_NAME":"STARLINK-3948","APOAPSIS":"415.291","RA_OF_ASC_NODE":"135.9968","SITE":"AFWTR","MEAN_MOTION_DDOT":"0.0000000000000","GP_ID":"206147484","TLE_LINE1":"1 52546U 22051P   22165.91667824 -.00719974  00000-0 -13256-1 0  9998","ARG_OF_PERICENTER":"51.2588","EPHEMERIS_TYPE":"0","MEAN_MOTION_DOT":"-0.00719974","REV_AT_EPOCH":"556","FILE":"3496180","LAUNCH_DATE":"2022-05-13","CENTER_NAME":"EARTH","CLASSIFICATION_TYPE":"U","BSTAR":"-0.01325600000000","PERIAPSIS":"413.483","RCS_SIZE":"LARGE","ECCENTRICITY":"0.00013310"},{"OBJECT_NAME":"STARLINK-3869","APOAPSIS":"464.761","RA_OF_ASC_NODE":"137.6985","EPOCH":"2022-06-14T22:00:00.999936","INCLINATION":"53.2174","COUNTRY_CODE":"US","OBJECT_TYPE":"PAYLOAD","REF_FRAME":"TEME","SEMIMAJOR_AXIS":"6841.586","PERIOD":"93.863","DECAY_DATE":null,"OBJECT_ID":"2022-051Q","TLE_LINE2":"2 52547  53.2174 137.6985 0001914  37.6606 136.2327 15.34148997  1308","TIME_SYSTEM":"UTC","NORAD_CAT_ID":"52547","MEAN_ANOMALY":"136.2327","MEAN_MOTION":"15.34148997","ELEMENT_SET_NO":"999","MEAN_ELEMENT_THEORY":"SGP4","ECCENTRICITY":"0.00019140","PERIAPSIS":"462.142","RCS_SIZE":"LARGE","BSTAR":"-0.02711200000000","LAUNCH_DATE":"2022-05-13","CENTER_NAME":"EARTH","CLASSIFICATION_TYPE":"U","FILE":"3496199","EPHEMERIS_TYPE":"0","MEAN_MOTION_DOT":"-0.00839578","REV_AT_EPOCH":"130","MEAN_MOTION_DDOT":"0.0000000000000","TLE_LINE1":"1 52547U 22051Q   22165.91667824 -.00839578  00000-0 -27112-1 0  9998","ARG_OF_PERICENTER":"37.6606","GP_ID":"206172413","SITE":"AFWTR"},{"OBJECT_NAME":"STARLINK-3931","APOAPSIS":"415.084","RA_OF_ASC_NODE":"136.0479","EPOCH":"2022-06-14T22:00:00.999936","INCLINATION":"53.2175","COUNTRY_CODE":"US","OBJECT_TYPE":"PAYLOAD","REF_FRAME":"TEME","SEMIMAJOR_AXIS":"6792.455","PERIOD":"92.854","DECAY_DATE":null,"OBJECT_ID":"2022-051R","TIME_SYSTEM":"UTC","TLE_LINE2":"2 52548  53.2175 136.0479 0001126  73.5715 345.0271 15.50824451  5560","NORAD_CAT_ID":"52548","MEAN_ANOMALY":"345.0271","MEAN_MOTION":"15.50824451","ELEMENT_SET_NO":"999","MEAN_ELEMENT_THEORY":"SGP4","ECCENTRICITY":"0.00011260","PERIAPSIS":"413.555","RCS_SIZE":"LARGE","BSTAR":"-0.01323600000000","LAUNCH_DATE":"2022-05-13","CENTER_NAME":"EARTH","CLASSIFICATION_TYPE":"U","FILE":"3496180","MEAN_MOTION_DOT":"-0.00719483","REV_AT_EPOCH":"556","EPHEMERIS_TYPE":"0","MEAN_MOTION_DDOT":"0.0000000000000","TLE_LINE1":"1 52548U 22051R   22165.91667824 -.00719483  00000-0 -13236-1 0  9993","ARG_OF_PERICENTER":"73.5715","GP_ID":"206147482","SITE":"AFWTR"}];
